CCSDS_OEM_VERS = 2.0
CREATION_DATE  = 2026-02-09T19:22:03.993
ORIGINATOR     = NASA/JSC/FOD/TOPO

META_START
OBJECT_NAME          = ISS
OBJECT_ID            = 1998-067-A
CENTER_NAME          = Earth
REF_FRAME            = EME2000
TIME_SYSTEM          = UTC
START_TIME           = 2026-02-09T12:00:00.000
USEABLE_START_TIME   = 2026-02-09T12:00:00.000
USEABLE_STOP_TIME    = 2026-02-24T12:00:00.000
STOP_TIME            = 2026-02-24T12:00:00.000
META_STOP

COMMENT Source: This file was produced by the TOPO office within FOD at JSC.
COMMENT Units are in kg and m^2
COMMENT MASS=479904.60
COMMENT DRAG_AREA=1216.50
COMMENT DRAG_COEFF=2.00
COMMENT SOLAR_RAD_AREA=0.00
COMMENT SOLAR_RAD_COEFF=0.00
COMMENT Orbits start at the ascending node epoch
COMMENT ISS first asc. node: EPOCH = 2026-02-09T12:05:00.463 $ ORBIT = 3196 $ LAN(DEG) = -109.16083
COMMENT ISS last asc. node : EPOCH = 2026-02-24T11:25:40.868 $ ORBIT = 3428 $ LAN(DEG) = 171.89707
COMMENT Begin sequence of events
COMMENT TRAJECTORY EVENT SUMMARY:
COMMENT 
COMMENT |       EVENT        |       TIG        | ORB |   DV    |   HA    |   HP    |
COMMENT |                    |       GMT        |     |   M/S   |   KM    |   KM    |
COMMENT |                    |                  |     |  (F/S)  |  (NM)   |  (NM)   |
COMMENT =============================================================================
COMMENT  Crew-12 Launch        043:10:38:29.000             0.0     434.1     407.2
COMMENT                                                    (0.0)   (234.4)   (219.8)
COMMENT 
COMMENT  Crew-12 Dock          044:15:02:34.000             0.0     433.9     407.3
COMMENT                                                    (0.0)   (234.3)   (219.9)
COMMENT 
COMMENT  GMT050 Reboost Preli  050:00:57:00.000             0.9     433.3     407.3
COMMENT                                                    (3.0)   (234.0)   (219.9)
COMMENT 
COMMENT =============================================================================
COMMENT End sequence of events
2026-02-18T04:18:30.000 5992.575307580520 -2664.836639973340 1768.653637961200 3.41126805957226 3.87147641221817 -5.67038357907828
2026-02-18T04:22:30.000 6583.015078213650 -1649.912818258690 359.753222645571 1.47931152102608 4.53438651181157 -5.99839065116418
2026-02-18T04:26:30.000 6694.224912977520 -514.856593783670 -1075.440969611250 -0.55765541712591 4.86656339041541 -5.88834262613494
2026-02-18T04:30:30.000 6318.900898516580 657.649270670684 -2432.281888513800 -2.55027333411155 4.84477279726309 -5.34974200830849
2026-02-18T04:34:30.000 5485.269311290580 1782.491141507000 -3612.244099010680 -4.35371457993297 4.47205048689036 -4.42366348569464
2026-02-18T04:38:30.000 4254.678787220790 2778.377673332710 -4530.090240006840 -5.83845694540454 3.77689043988832 -3.17894892495696
2026-02-18T04:42:30.000 2716.816326717300 3573.650091732650 -5119.882404861660 -6.89916371549118 2.81050213448362 -1.70653034165540
2026-02-18T04:46:30.000 983.051083493171 4111.271624527170 -5339.479609939810 -7.46140992237651 1.64273039136375 -0.11255908748283
2026-02-18T04:50:30.000 -821.542139405596 4352.702941837820 -5173.304121489550 -7.48593276812106 0.35700733648420 1.48898482997142
2026-02-18T04:54:30.000 -2566.929217702330 4280.515665631690 -4633.328502271510 -6.97087942944847 -0.95513648071786 2.98374599247980
2026-02-18T04:58:30.000 -4127.167627913070 3899.628233365240 -3758.267615147370 -5.95207063472017 -2.20002941622329 4.26446794607333
2026-02-18T05:02:30.000 -5389.267142642360 3237.076509719150 -2610.993256868980 -4.50112615774367 -3.28808274622342 5.23828076722544
2026-02-18T05:06:30.000 -6261.326672596270 2340.276283006210 -1274.254487262300 -2.72125582754090 -4.14007667296769 5.83346621604895
2026-02-18T05:10:30.000 -6679.374183923140 1273.813791236440 155.108239431572 -0.74070733068571 -4.69312479315361 6.00516858969433
2026-02-18T05:14:30.000 -6612.319827162770 114.862680233497 1573.146807733540 1.29650249885746 -4.90593334790341 5.73947147544549
2026-02-18T05:18:30.000 -6064.449528313920 -1052.431570588160 2876.454165577460 3.24146373502206 -4.76209418879304 5.05481677037375
2026-02-18T05:22:30.000 -5075.245368891320 -2143.133932789330 3969.832856869650 4.95165365843254 -4.27150891752287 4.00075748758766
2026-02-18T05:26:30.000 -3716.531788004580 -3077.798363964000 4773.361441929210 6.30179095180225 -3.46972214802496 2.65421422065067
2026-02-18T05:30:30.000 -2087.174538327420 -3788.324114577530 5228.288474099320 7.19319765356210 -2.41509491060806 1.11355023042747
2026-02-18T05:34:30.000 -305.805325209931 -4222.917823603620 5301.313917306930 7.56078108892988 -1.18432074102894 -0.50880600959077
2026-02-18T05:38:30.000 1497.825815085950 -4349.847505947680 4987.005270455380 7.37752847677030 0.13311613176977 -2.09445068323637
2026-02-18T05:42:30.000 3192.278492629560 -4159.764949571880 4308.212368684130 6.65647483382810 1.44128166242791 -3.52752499329845
2026-02-18T05:46:30.000 4653.999542956070 -3666.432656098920 3314.447474139600 5.44995572556458 2.64468976312097 -4.70303620176323
2026-02-18T05:50:30.000 5776.405463810810 -2905.784016212630 2078.341726211100 3.84628220904777 3.65520510956026 -5.53458493834776
2026-02-18T05:54:30.000 6477.817996815180 -1933.337086511060 690.313663534620 1.96334753247191 4.39885052148483 -5.96130984140507
2026-02-18T05:58:30.000 6707.530699823290 -820.077819899817 -748.154349342482 -0.06026274592683 4.82152777188722 -5.95247414457976
2026-02-18T06:02:30.000 6449.536662664870 352.845649551581 -2132.095869094100 -2.07589036667864 4.89320747625071 -5.50999712027499
2026-02-18T06:06:30.000 5723.524738316930 1500.204979929950 -3360.910159162390 -3.93668423470605 4.61005379928098 -4.66796117331645
2026-02-18T06:10:30.000 4583.096564132860 2538.985871622690 -4345.720881228300 -5.50861527012642 3.99412265142877 -3.48925997304636
2026-02-18T06:14:30.000 3111.526376578040 3394.362448134250 -5015.690357537360 -6.67983025344869 3.09109015569421 -2.06031112706009
2026-02-18T06:18:30.000 1415.520407829700 4004.943189203710 -5322.886262980310 -7.36792188092488 1.96648972650086 -0.48439053310267
2026-02-18T06:22:30.000 -382.483203291530 4326.968539583150 -5245.464816670760 -7.52483684224278 0.70084912710913 1.12562466853198
2026-02-18T06:26:30.000 -2152.921657787350 4337.266200722910 -4789.067857958510 -7.13952592847818 -0.61572202711683 2.65480346296492
2026-02-18T06:30:30.000 -3768.116987154870 4034.864219223110 -3986.423069977310 -6.23870713328062 -1.88934379134668 3.99360889874894
2026-02-18T06:34:30.000 -5111.225108700660 3441.156402935240 -2895.161410871240 -4.88554231403890 -3.02856801551653 5.04524940031881
2026-02-18T06:38:30.000 -6084.597995288680 2598.557758563660 -1593.917105094530 -3.17604071677876 -3.95071445658259 5.73258356872200
2026-02-18T06:42:30.000 -6616.991594439810 1567.655682336530 -176.859781925435 -1.23298495224944 -4.58801661572148 6.00419919880362
2026-02-18T06:46:30.000 -6668.999241926250 422.962140487532 1253.048364723900 0.80268690077799 -4.89297767721819 5.83877479431570
2026-02-18T06:50:30.000 -6236.209897023640 -752.458655140404 2591.584031484980 2.78215104527717 -4.84239078573220 5.24731464489195
2026-02-18T06:54:30.000 -5349.697374918700 -1873.123342313640 3741.017328844450 4.56047382672852 -4.43939815055467 4.27252839562590
2026-02-18T06:58:30.000 -4073.754803245750 -2857.438172043450 4617.349928559710 6.00746299161286 -3.71305590119717 2.98541853003270
2026-02-18T07:02:30.000 -2501.175499737380 -3633.689596135060 5156.507932297880 7.01727472707521 -2.71612148953040 1.47996807634112
2026-02-18T07:06:30.000 -746.439481361848 -4145.293063893740 5319.040124632930 7.51613020686903 -1.52112489450592 -0.13390608008751
2026-02-18T07:10:30.000 1062.660612280700 -4354.914042586310 5092.977006666610 7.46748796384261 -0.21495757192222 -1.73849299304106
2026-02-18T07:14:30.000 2794.303161417780 -4247.178906854050 4494.707610745660 6.87453555240808 1.10733287923717 -3.21658349401079
2026-02-18T07:18:30.000 4322.228633664530 -3829.838414955300 3567.843562911300 5.78021556789130 2.34926236796644 -4.45991350372619
2026-02-18T07:22:30.000 5535.008046402690 -3133.266371551640 2380.102362385870 4.26448031415299 3.41994089555142 -5.37713953566566
2026-02-18T07:26:30.000 6344.317332561630 -2208.293950285520 1018.367812257350 2.43874830185591 4.24090665937869 -5.90096776957563
2026-02-18T07:30:30.000 6691.528265288800 -1122.455290919370 -417.772180611198 0.43744929252875 4.75234554805372 -5.99350500999586
2026-02-18T07:34:30.000 6552.007705337940 45.065839220515 -1823.469710995900 -1.59237462371680 4.91758397974743 -5.64907947092132
2026-02-18T07:38:30.000 5936.795330786400 1209.354399433690 -3096.440314628510 -3.50246307286501 4.72582441469509 -4.89452982414377
2026-02-18T07:42:30.000 4891.500192616910 2286.074185272580 -4144.500225440360 -5.15479715329065 4.19254024133165 -3.78652200359951
2026-02-18T07:46:30.000 3492.619282104770 3197.586347207070 -4892.170721222770 -6.43148571131198 3.35761657869297 -2.40662515009625
2026-02-18T07:50:30.000 1841.731881454180 3878.423789978550 -5285.899767225530 -7.24248630236778 2.28191319228737 -0.85485094550498
2026-02-18T07:54:30.000 58.116728422217 4279.792473928020 -5297.644222848610 -7.53107648429297 1.04267702655003 0.75747950407364
2026-02-18T07:58:30.000 -1729.678449790050 4372.874274026300 -4926.685632007770 -7.27709693963814 -0.27181062374249 2.31523641231103
2026-02-18T08:02:30.000 -3392.787679968150 4150.794127215780 -4199.639648927430 -6.49808418925822 -1.56793840436048 3.70700224885635
2026-02-18T08:06:30.000 -4811.023587398360 3629.180121594160 -3168.680191889910 -5.24852073644688 -2.75284944602513 4.83242962994299
2026-02-18T08:10:30.000 -5881.427626631550 2845.218120453130 -1908.022086056800 -3.61678957456082 -3.74081130619026 5.60931504275146
